AMC-21                  
1 33275U 08038B   18260.63332736  .00000017  00000-0  00000-0 0  9997
2 33275   0.0406 327.6738 0002415 194.1756 297.7661  1.00271493 37121
INMARSAT 4-F3           
1 33278U 08039A   18261.56834576 -.00000155  00000-0  00000+0 0  9996
2 33278   3.0227   6.0346 0002654 179.0170 279.0222  1.00272572 36908
NIMIQ 4                 
1 33373U 08044A   18261.49913959 -.00000239  00000-0  00000+0 0  9996
2 33373   0.0021 186.2137 0002056 343.7929 285.0721  1.00272326 36470
GALAXY 19 (G-19)        
1 33376U 08045A   18260.28011164 -.00000159  00000-0  00000-0 0  9995
2 33376   0.0036 160.8166 0003494  17.8729 181.3175  1.00272098 36571
VENESAT-1               
1 33414U 08055A   18261.49992471 -.00000256  00000-0  00000+0 0  9999
2 33414   0.0174 243.0038 0002846 326.7324 249.6002  1.00270969 36181
ASTRA 1M                
1 33436U 08057A   18261.30399306  .00000101  00000-0  00000+0 0  9991
2 33436   0.0136 148.9486 0005577   6.3188 330.5372  1.00270577 36114
CIEL-2                  
1 33453U 08063A   18260.70014664  .00000039  00000-0  00000+0 0  9991
2 33453   0.0293 259.2895 0003126 266.9023 313.5847  1.00272514 35779
EUTELSAT HOT BIRD 13C   
1 33459U 08065A   18260.97279457  .00000068  00000-0  00000+0 0  9993
2 33459   0.0611 325.8510 0004798 183.0953 211.0888  1.00272259 35885
EUTELSAT 48D            
1 33460U 08065B   18261.52513587  .00000105  00000-0  00000+0 0  9994
2 33460   0.0564 339.9407 0003255 203.5853  50.9923  1.00272783 35746
FENGYUN 2E              
1 33463U 08066A   18260.91091030 -.00000220  00000-0  00000-0 0  9994
2 33463   3.0545  69.1036 0005172 230.7465 111.6098  1.00267573 35718
EXPRESS-AM44            
1 33595U 09007A   18261.29797378 -.00000108  00000-0  00000+0 0  9990
2 33595   0.0348 296.7634 0000438   6.5014 150.1642  1.00271648 35196
NSS-9                   
1 33749U 09008A   18260.76234580  .00000053  00000-0  00000+0 0  9992
2 33749   0.0416 341.2923 0002074 187.8240 285.0370  1.00273019 35192
EUTELSAT 33E            
1 33750U 09008B   18261.52208262  .00000137  00000-0  00000+0 0  9990
2 33750   0.0316 354.4226 0006390 193.4937  30.5466  1.00277184 35237
TELSTAR 11N             
1 34111U 09009A   18261.14906222 -.00000270  00000-0  00000+0 0  9991
2 34111   0.0188 190.8439 0002657 326.3685 215.9154  1.00271360 35056
EUTELSAT 10A            
1 34710U 09016A   18261.30216111  .00000050  00000-0  00000+0 0  9998
2 34710   0.0665 357.2504 0005032 181.7337 296.9778  1.00275977 34609
SES-7 (PROTOSTAR 2)     
1 34941U 09027A   18260.89644594 -.00000364  00000-0  00000-0 0  9999
2 34941   0.0460  97.3327 0001349 122.6535 207.7576  1.00272148 34269
MEASAT-3A               
1 35362U 09032A   18260.75516552 -.00000261  00000-0  00000+0 0  9995
2 35362   0.0421 222.8123 0002858 327.6167 169.5717  1.00273699 33866
GOES 14                 
1 35491U 09033A   18261.29698710 -.00000114  00000-0  00000+0 0  9993
2 35491   0.3595 277.0339 0010942 302.2222 140.6716  1.00275510 33794
SIRIUS FM-5             
1 35493U 09034A   18260.61299528 -.00000219  00000-0  00000-0 0  9992
2 35493   0.0233 267.3474 0000882 173.7232  49.9588  1.00271020 18353
TERRESTAR-1             
1 35496U 09035A   18260.30733883 -.00000073  00000-0  00000-0 0  9997
2 35496   2.5983 355.7712 0003035 195.1384 164.9272  1.00272558 33803
ASIASAT 5               
1 35696U 09042A   18260.88944843 -.00000326  00000-0  00000-0 0  9991
2 35696   0.0100 229.7625 0001388 268.8777 278.8299  1.00270210 33307
JCSAT-RA (JCSAT-12)     
1 35755U 09044A   18260.54054275 -.00000050  00000-0  00000-0 0  9997
2 35755   0.0138 157.4969 0001816  29.6650 172.8419  1.00272282 33242
OPTUS D3                
1 35756U 09044B   18261.18770770 -.00000166  00000-0  00000+0 0  9991
2 35756   0.0448  14.9084 0002460 157.4242  48.3141  1.00271984 33264
PALAPA D                
1 35812U 09046A   18260.69573660 -.00000377  00000-0  00000-0 0  9995
2 35812   0.0116 121.0305 0002132  74.5936 164.3759  1.00271642 33298
NIMIQ 5                 
1 35873U 09050A   18261.50097155 -.00000275  00000-0  00000+0 0  9994
2 35873   0.0226 253.2209 0002128 274.2575 297.5527  1.00271843 32992
AMAZONAS 2              
1 35942U 09054A   18261.20817582 -.00000301  00000-0  00000+0 0  9996
2 35942   0.0227 155.2962 0005541  13.8083 201.9224  1.00271656 32816
COMSATBW-1              
1 35943U 09054B   18260.88194613  .00000005  00000-0  00000-0 0  9994
2 35943   0.0516 107.6437 0002001  70.7728 198.8422  1.00273056 32935
NSS-12                  
1 36032U 09058A   18260.85078099  .00000052  00000-0  00000-0 0  9996
2 36032   0.0403 332.4343 0002552 205.8679 181.7054  1.00274081 32561
THOR 6                  
1 36033U 09058B   18261.15639003 -.00000029  00000-0  00000+0 0  9993
2 36033   0.0099 182.5906 0001888 338.2355 251.6654  1.00271747 32609
INTELSAT 14 (IS-14)     
1 36097U 09064A   18260.13607465 -.00000293  00000-0  00000-0 0  9998
2 36097   0.0094 156.7470 0002511  15.2992 187.9637  1.00271548 32337
EUTELSAT 36B            
1 36101U 09065A   18261.16371785  .00000137  00000-0  00000+0 0  9997
2 36101   0.0691  19.0695 0004506 156.3455 276.4621  1.00275216 32448
INTELSAT 15 (IS-15)     
1 36106U 09067A   18260.88639517 -.00000205  00000-0  00000-0 0  9990
2 36106   0.0258 270.6769 0002117 263.8923 226.4517  1.00272646 12934
DIRECTV 12              
1 36131U 09075A   18261.17271493 -.00000122  00000-0  00000+0 0  9992
2 36131   0.0373 319.8438 0000138 182.7902 173.7873  1.00272296 32017
BEIDOU 3                
1 36287U 10001A   18260.89420287 -.00000301  00000-0  00000-0 0  9990
2 36287   1.4710   8.3553 0004505 154.9845 295.4000  1.00271721 31808
RADUGA-1M 2             
1 36358U 10002A   18261.54493741 -.00000202  00000-0  00000+0 0  9997
2 36358   0.0292 237.6926 0001751 352.9560  47.9493  1.00271521 31648
SDO                     
1 36395U 10005A   18260.34064605 -.00000089  00000-0  00000+0 0  9994
2 36395  29.3295 132.3215 0001581  38.9118 205.6803  1.00276140 31650
INTELSAT 16 (IS-16)     
1 36397U 10006A   18261.14138546 -.00000263  00000-0  00000+0 0  9996
2 36397   0.0236 155.5510 0002178  18.3034 157.8532  1.00268798 31365
GOES 15                 
1 36411U 10008A   18261.38390123  .00000072  00000-0  00000+0 0  9999
2 36411   0.3778 279.4418 0004512 263.3179 177.2446  1.00266298 31324
ECHOSTAR 14             
1 36499U 10010A   18261.52273743 -.00000019  00000-0  00000+0 0  9994
2 36499   0.0098 223.8765 0002932 313.6712 249.1327  1.00273260 31173
SES-1                   
1 36516U 10016A   18261.45535546 -.00000133  00000-0  00000+0 0  9991
2 36516   0.0133 166.1343 0001759   7.4313 246.6788  1.00270036 30771
ASTRA 3B                
1 36581U 10021A   18261.16127524  .00000118  00000-0  00000+0 0  9992
2 36581   0.0487 320.4378 0002879 215.4237 262.7256  1.00269678 30283
COMSATBW-2              
1 36582U 10021B   18261.15918159  .00000069  00000-0  00000+0 0  9999
2 36582   0.0155 209.0208 0001893 327.6886 250.8099  1.00270907 30629
BEIDOU 4                
1 36590U 10024A   18261.46572826 -.00000372  00000-0  00000+0 0  9990
2 36590   1.3996  24.2069 0004537 326.1895 285.1076  1.00268069 30418
BADR-5                  
1 36592U 10025A   18261.16171142  .00000126  00000-0  00000+0 0  9992
2 36592   0.0130 193.8187 0004996 341.5660 265.8520  1.00270789 30534
COMS 1                  
1 36744U 10032A   18260.89710032 -.00000364  00000-0  00000-0 0  9991
2 36744   0.0118 151.0052 0000823 357.4930 299.3820  1.00268929 22716
ARABSAT-5A              
1 36745U 10032B   18261.48799456  .00000135  00000-0  00000+0 0  9999
2 36745   0.0552  15.5015 0003020 166.8891  21.1344  1.00274076 30263
ECHOSTAR 15             
1 36792U 10034A   18260.85708392 -.00000301  00000-0  00000-0 0  9999
2 36792   0.0294 273.2707 0002085 258.1989  72.1723  1.00271052 29976
NILESAT 201             
1 36830U 10037A   18260.86798840 -.00000077  00000-0  00000-0 0  9993
2 36830   0.0387 184.9446 0005063 331.7246 145.5520  1.00272379 29998
RASCOM-QAF 1R           
1 36831U 10037B   18261.00054771 -.00000000  00000-0  00000+0 0  9994
2 36831   0.0239 247.8163 0004553 300.7058 171.4771  1.00271485 29926
CHINASAT 6A (ZX 6A)     
1 37150U 10042A   18261.40764818 -.00000372  00000-0  00000+0 0  9991
2 37150   0.0233 222.9881 0002703 316.2197  89.8798  1.00271200 29530
QZS-1 (MICHIBIKI)       
1 37158U 10045A   18260.21928830 -.00000267  00000-0  00000-0 0  9990
2 37158  41.1291 152.7215 0759828 270.8637 140.6823  1.00232560 29340
XM-5                    
1 37185U 10053A   18261.49852895 -.00000223  00000-0  00000+0 0  9998
2 37185   0.0172 181.4010 0001592 345.5455 284.6798  1.00271091 29083
BSAT-3B                 
1 37207U 10056B   18261.53521911 -.00000369  00000-0  00000+0 0  9994
2 37207   0.0702 314.3273 0001716 300.9653  44.6545  1.00272255 28905
BEIDOU 6                
1 37210U 10057A   18261.62165198 -.00000129  00000-0  00000+0 0  9994
2 37210   0.7280  36.3559 0007257 164.0347 180.9674  1.00270775 28924
SKYTERRA 1              
1 37218U 10061A   18261.22928884 -.00000135  00000-0  00000+0 0  9999
2 37218   2.6771 338.3555 0003466 192.0574 167.9144  1.00272595 28862
ZHONGXING-20A           
1 37234U 10064A   18260.89450380 -.00000357  00000-0  00000-0 0  9990
2 37234   0.0708 119.6511 0001949 132.5557 196.5166  1.00266911 28663
HYLAS 1                 
1 37237U 10065A   18260.58868757 -.00000253  00000-0  00000-0 0  9996
2 37237   0.0836 288.5686 0001387  87.4891 158.8149  1.00273504 28615
INTELSAT 17 (IS-17)     
1 37238U 10065B   18261.52871253 -.00000020  00000-0  00000+0 0  9998
2 37238   0.0317 242.3696 0002306 300.1114  71.2610  1.00270719 28553
EUTELSAT KA-SAT 9A      
1 37258U 10069A   18259.98664594  .00000041  00000-0  00000+0 0  9991
2 37258   0.0402 275.1167 0001964 246.6988 198.1972  1.00269786 28449
